{"type": "FeatureCollection", "features": [ {"type": "Feature", "properties": {"norad_id": 41556, "name": "ZIYUAN 3-02 (ZY 3-02)", "group": "resource", "lat": 61.13707273403452, "lon": 55.985530050418575, "alt_km": 503.082670343917, "timestamp": "2025-12-21T14:40:47.568068+00:00", "meta": {"OBJECT_NAME": "ZIYUAN 3-02 (ZY 3-02)", "OBJECT_ID": "2016-033A", "EPOCH": "2025-12-21T06:30:49.989024", "MEAN_MOTION": 15.21167163, "ECCENTRICITY": 0.00111146, "INCLINATION": 97.4036, "RA_OF_ASC_NODE": 69.2965, "ARG_OF_PERICENTER": 214.2397, "MEAN_ANOMALY": 145.8124, "EPHEMERIS_TYPE": 0, "CLASSIFICATION_TYPE": "U", "NORAD_CAT_ID": 41556, "ELEMENT_SET_NO": 999, "REV_AT_EPOCH": 53093, "BSTAR": 0.00025114631, "MEAN_MOTION_DOT": 5.536e-05, "MEAN_MOTION_DDOT": 0}, "tle": {"line1": "1 41556U 16033A   25355.27141191  .00005536  00000+0  25115-3 0  9995", "line2": "2 41556  97.4036  69.2965 0011114 214.2397 145.8124 15.21167163530933"}}, "geometry": {"type": "Point", "coordinates": [55.985530050418575, 61.13707273403452]}}, {"type": "Feature", "properties": {"norad_id": 41599, "name": "CARTOSAT-2C", "group": "resource", "lat": -59.590332927287406, "lon": 65.69922249141425, "alt_km": 516.2074949174121, "timestamp": "2025-12-21T14:40:47.568078+00:00", "meta": {"OBJECT_NAME": "CARTOSAT-2C", "OBJECT_ID": "2016-040A", "EPOCH": "2025-12-21T05:27:37.717632", "MEAN_MOTION": 15.19182238, "ECCENTRICITY": 0.00109786, "INCLINATION": 97.4759, "RA_OF_ASC_NODE": 52.3905, "ARG_OF_PERICENTER": 36.577, "MEAN_ANOMALY": 323.6212, "EPHEMERIS_TYPE": 0, "CLASSIFICATION_TYPE": "U", "NORAD_CAT_ID": 41599, "ELEMENT_SET_NO": 999, "REV_AT_EPOCH": 52669, "BSTAR": 4.310448e-05, "MEAN_MOTION_DOT": 8.39e-06, "MEAN_MOTION_DDOT": 0}, "tle": {"line1": "1 41599U 16040A   25355.22751988  .00000839  00000+0  43104-4 0  9996", "line2": "2 41599  97.4759  52.3905 0010978  36.5770 323.6212 15.19182238526695"}}, "geometry": {"type": "Point", "coordinates": [65.69922249141425, -59.590332927287406]}}, {"type": "Feature", "properties": {"norad_id": 41601, "name": "SKYSAT-C1", "group": "resource", "lat": 62.928660434089394, "lon": 18.253882634640483, "alt_km": 461.4142872562297, "timestamp": "2025-12-21T14:40:47.568088+00:00", "meta": {"OBJECT_NAME": "SKYSAT-C1", "OBJECT_ID": "2016-040C", "EPOCH": "2025-12-21T01:52:04.162944", "MEAN_MOTION": 15.32727522, "ECCENTRICITY": 0.00014088, "INCLINATION": 96.9809, "RA_OF_ASC_NODE": 31.6216, "ARG_OF_PERICENTER": 345.105, "MEAN_ANOMALY": 15.0151, "EPHEMERIS_TYPE": 0, "CLASSIFICATION_TYPE": "U", "NORAD_CAT_ID": 41601, "ELEMENT_SET_NO": 999, "REV_AT_EPOCH": 53055, "BSTAR": 0.00019483176, "MEAN_MOTION_DOT": 6.086e-05, "MEAN_MOTION_DDOT": 0}, "tle": {"line1": "1 41601U 16040C   25355.07782596  .00006086  00000+0  19483-3 0  9994", "line2": "2 41601  96.9809  31.6216 0001408 345.1050  15.0151 15.32727522530552"}}, "geometry": {"type": "Point", "coordinates": [18.253882634640483, 62.928660434089394]}}, {"type": "Feature", "properties": {"norad_id": 41603, "name": "LAPAN-A3", "group": "resource", "lat": 6.742219461925118, "lon": 173.69464645303327, "alt_km": 476.6482517641962, "timestamp": "2025-12-21T14:40:47.568099+00:00", "meta": {"OBJECT_NAME": "LAPAN-A3", "OBJECT_ID": "2016-040E", "EPOCH": "2025-12-21T06:05:09.065760", "MEAN_MOTION": 15.31615453, "ECCENTRICITY": 0.00088803, "INCLINATION": 97.1425, "RA_OF_ASC_NODE": 352.5001, "ARG_OF_PERICENTER": 299.2141, "MEAN_ANOMALY": 60.8212, "EPHEMERIS_TYPE": 0, "CLASSIFICATION_TYPE": "U", "NORAD_CAT_ID": 41603, "ELEMENT_SET_NO": 999, "REV_AT_EPOCH": 52756, "BSTAR": 0.00011115103, "MEAN_MOTION_DOT": 3.322e-05, "MEAN_MOTION_DDOT": 0}, "tle": {"line1": "1 41603U 16040E   25355.25357715  .00003322  00000+0  11115-3 0  9991", "line2": "2 41603  97.1425 352.5001 0008880 299.2141  60.8212 15.31615453527560"}}, "geometry": {"type": "Point", "coordinates": [173.69464645303327, 6.742219461925118]}}, {"type": "Feature", "properties": {"norad_id": 41604, "name": "BIROS", "group": "resource", "lat": 74.15845437260242, "lon": -126.64358451179011, "alt_km": 284.5459910265399, "timestamp": "2025-12-21T14:40:47.568109+00:00", "meta": {"OBJECT_NAME": "BIROS", "OBJECT_ID": "2016-040F", "EPOCH": "2025-12-21T00:40:29.532576", "MEAN_MOTION": 15.92820677, "ECCENTRICITY": 0.00037085, "INCLINATION": 97.0689, "RA_OF_ASC_NODE": 26.8121, "ARG_OF_PERICENTER": 133.4081, "MEAN_ANOMALY": 226.7504, "EPHEMERIS_TYPE": 0, "CLASSIFICATION_TYPE": "U", "NORAD_CAT_ID": 41604, "ELEMENT_SET_NO": 999, "REV_AT_EPOCH": 53004, "BSTAR": 0.00051492224, "MEAN_MOTION_DOT": 0.00176298, "MEAN_MOTION_DDOT": 1.357037e-05}, "tle": {"line1": "1 41604U 16040F   25355.02811959  .00176298  13570-4  51492-3 0  9998", "line2": "2 41604  97.0689  26.8121 0003708 133.4081 226.7504 15.92820677530049"}}, "geometry": {"type": "Point", "coordinates": [-126.64358451179011, 74.15845437260242]}}, {"type": "Feature", "properties": {"norad_id": 41727, "name": "GAOFEN-3", "group": "resource", "lat": -18.905891741721224, "lon": 3.964561332931804, "alt_km": 756.0102431028445, "timestamp": "2025-12-21T14:40:47.568119+00:00", "meta": {"OBJECT_NAME": "GAOFEN-3", "OBJECT_ID": "2016-049A", "EPOCH": "2025-12-21T06:26:34.641600", "MEAN_MOTION": 14.42216231, "ECCENTRICITY": 0.00012457, "INCLINATION": 98.4031, "RA_OF_ASC_NODE": 0.7247, "ARG_OF_PERICENTER": 57.036, "MEAN_ANOMALY": 303.0949, "EPHEMERIS_TYPE": 0, "CLASSIFICATION_TYPE": "U", "NORAD_CAT_ID": 41727, "ELEMENT_SET_NO": 999, "REV_AT_EPOCH": 49300, "BSTAR": 8.6689917e-05, "MEAN_MOTION_DOT": 2.42e-06, "MEAN_MOTION_DDOT": 0}, "tle": {"line1": "1 41727U 16049A   25355.26845650  .00000242  00000+0  86690-4 0  9997", "line2": "2 41727  98.4031   0.7247 0001245  57.0360 303.0949 14.42216231493001"}}, "geometry": {"type": "Point", "coordinates": [3.964561332931804, -18.905891741721224]}}, {"type": "Feature", "properties": {"norad_id": 41771, "name": "SKYSAT-C4", "group": "resource", "lat": -51.06765628102171, "lon": 29.03609874226197, "alt_km": 447.3171611604603, "timestamp": "2025-12-21T14:40:47.568129+00:00", "meta": {"OBJECT_NAME": "SKYSAT-C4", "OBJECT_ID": "2016-058B", "EPOCH": "2025-12-21T00:53:26.065536", "MEAN_MOTION": 15.42468252, "ECCENTRICITY": 0.00022314, "INCLINATION": 96.9361, "RA_OF_ASC_NODE": 19.8219, "ARG_OF_PERICENTER": 128.0072, "MEAN_ANOMALY": 232.1378, "EPHEMERIS_TYPE": 0, "CLASSIFICATION_TYPE": "U", "NORAD_CAT_ID": 41771, "ELEMENT_SET_NO": 999, "REV_AT_EPOCH": 51795, "BSTAR": 0.00024326235, "MEAN_MOTION_DOT": 0.00010455, "MEAN_MOTION_DDOT": 0}, "tle": {"line1": "1 41771U 16058B   25355.03710724  .00010455  00000+0  24326-3 0  9998", "line2": "2 41771  96.9361  19.8219 0002231 128.0072 232.1378 15.42468252517956"}}, "geometry": {"type": "Point", "coordinates": [29.03609874226197, -51.06765628102171]}}, {"type": "Feature", "properties": {"norad_id": 41772, "name": "SKYSAT-C5", "group": "resource", "lat": -40.61086410704892, "lon": 45.105724744487404, "alt_km": 469.53874078895205, "timestamp": "2025-12-21T14:40:47.568140+00:00", "meta": {"OBJECT_NAME": "SKYSAT-C5", "OBJECT_ID": "2016-058C", "EPOCH": "2025-12-21T02:20:02.063040", "MEAN_MOTION": 15.34013342, "ECCENTRICITY": 0.00037944, "INCLINATION": 97.0744, "RA_OF_ASC_NODE": 38.5001, "ARG_OF_PERICENTER": 251.7619, "MEAN_ANOMALY": 108.3212, "EPHEMERIS_TYPE": 0, "CLASSIFICATION_TYPE": "U", "NORAD_CAT_ID": 41772, "ELEMENT_SET_NO": 999, "REV_AT_EPOCH": 51644, "BSTAR": 0.00019139619, "MEAN_MOTION_DOT": 6.225e-05, "MEAN_MOTION_DDOT": 0}, "tle": {"line1": "1 41772U 16058C   25355.09724610  .00006225  00000+0  19140-3 0  9992", "line2": "2 41772  97.0744  38.5001 0003794 251.7619 108.3212 15.34013342516448"}}, "geometry": {"type": "Point", "coordinates": [45.105724744487404, -40.61086410704892]}}, {"type": "Feature", "properties": {"norad_id": 41773, "name": "SKYSAT-C2", "group": "resource", "lat": 72.26660710399416, "lon": -2.9528094232209745, "alt_km": 445.76657351518315, "timestamp": "2025-12-21T14:40:47.568150+00:00", "meta": {"OBJECT_NAME": "SKYSAT-C2", "OBJECT_ID": "2016-058D", "EPOCH": "2025-12-21T01:51:51.666048", "MEAN_MOTION": 15.37443909, "ECCENTRICITY": 0.00032987, "INCLINATION": 97.0347, "RA_OF_ASC_NODE": 19.2514, "ARG_OF_PERICENTER": 10.7695, "MEAN_ANOMALY": 349.3621, "EPHEMERIS_TYPE": 0, "CLASSIFICATION_TYPE": "U", "NORAD_CAT_ID": 41773, "ELEMENT_SET_NO": 999, "REV_AT_EPOCH": 51764, "BSTAR": 0.00022753944, "MEAN_MOTION_DOT": 8.279e-05, "MEAN_MOTION_DDOT": 0}, "tle": {"line1": "1 41773U 16058D   25355.07768132  .00008279  00000+0  22754-3 0  9994", "line2": "2 41773  97.0347  19.2514 0003298  10.7695 349.3621 15.37443909517642"}}, "geometry": {"type": "Point", "coordinates": [-2.9528094232209745, 72.26660710399416]}}, {"type": "Feature", "properties": {"norad_id": 41774, "name": "SKYSAT-C3", "group": "resource", "lat": 48.17967198274691, "lon": -143.24286835195144, "alt_km": 426.9073100646674, "timestamp": "2025-12-21T14:40:47.568159+00:00", "meta": {"OBJECT_NAME": "SKYSAT-C3", "OBJECT_ID": "2016-058E", "EPOCH": "2025-12-20T08:34:23.687904", "MEAN_MOTION": 15.44652608, "ECCENTRICITY": 0.0001932, "INCLINATION": 96.9286, "RA_OF_ASC_NODE": 27.7493, "ARG_OF_PERICENTER": 107.595, "MEAN_ANOMALY": 252.5511, "EPHEMERIS_TYPE": 0, "CLASSIFICATION_TYPE": "U", "NORAD_CAT_ID": 41774, "ELEMENT_SET_NO": 999, "REV_AT_EPOCH": 51843, "BSTAR": 0.0002841356, "MEAN_MOTION_DOT": 0.00013163, "MEAN_MOTION_DDOT": 0}, "tle": {"line1": "1 41774U 16058E   25354.35721861  .00013163  00000+0  28414-3 0  9990", "line2": "2 41774  96.9286  27.7493 0001932 107.5950 252.5511 15.44652608518432"}}, "geometry": {"type": "Point", "coordinates": [-143.24286835195144, 48.17967198274691]}}]}